QIANFAN-89              
1 63175U 25046S   25361.17119852  .00000224  00000+0  32768-3 0  9996
2 63175  88.9776 318.5446 0018516  83.0760 277.2496 13.50980909 49357
QIANFAN-90              
1 63176U 25046T   25361.12586804  .00000195  00000+0  28349-3 0  9994
2 63176  88.9776 318.5216 0015453  81.5552 278.7349 13.50981023 49364
QIANFAN-91              
1 66033U 25233A   25360.97705970  .00000034  00000+0  27375-4 0  9997
2 66033  88.9986  60.6458 0015028  12.8574 347.2964 13.62305790  9921
QIANFAN-92              
1 66034U 25233B   25361.03285391  .00000017  00000+0  67198-5 0  9995
2 66034  88.9885  60.6504 0014124   9.8971 350.2460 13.59542921  9936
QIANFAN-93              
1 66035U 25233C   25360.98340005  .00000035  00000+0  29939-4 0  9993
2 66035  88.9953  60.6673 0014623   5.9672 354.1657 13.61342265  9921
QIANFAN-94              
1 66036U 25233D   25361.11972517  .00000193  00000+0  21056-3 0  9995
2 66036  88.9951  60.6329 0015070   1.0760 359.0430 13.68546175  9959
QIANFAN-95              
1 66037U 25233E   25361.14843977  .00000065  00000+0  30409-4 0  9997
2 66037  88.9949  60.4349 0014080   4.1748 355.9550 14.07038600 10062
QIANFAN-96              
1 66038U 25233F   25361.00916231  .00000037  00000+0  32537-4 0  9990
2 66038  88.9910  60.6842 0017653   8.0871 352.0567 13.59970299  9924
